{
  "norad_id": 59271,
  "name": "STARLINK-31630",
  "history": [
    {
      "epoch": "2026-03-28T16:56:41.590752Z",
      "apogee_km": 476.14054210068116,
      "perigee_km": 474.31055723267036,
      "latitude_deg": -5.1543873760922344e-05,
      "longitude_deg": -0.679670804930302,
      "height_km": 476.0949162128624,
      "semi_major_axis_km": 6853.3625496666755,
      "eccentricity": 0.00013351,
      "inclination_deg": 53.161,
      "raan_deg": 79.6163,
      "arg_perigee_deg": 88.2004,
      "mean_anomaly_deg": 271.9149,
      "mean_motion_rev_day": 15.3019649
    },
    {
      "epoch": "2026-03-29T03:55:04.018944Z",
      "apogee_km": 476.13849227866467,
      "perigee_km": 474.33742533949044,
      "latitude_deg": -4.278562045398288e-06,
      "longitude_deg": -167.84742727865773,
      "height_km": 476.18955999594647,
      "semi_major_axis_km": 6853.374958809078,
      "eccentricity": 0.0001314,
      "inclination_deg": 53.1611,
      "raan_deg": 77.4926,
      "arg_perigee_deg": 93.4039,
      "mean_anomaly_deg": 266.7112,
      "mean_motion_rev_day": 15.30192334
    },
    {
      "epoch": "2026-03-30T04:59:55.133664Z",
      "apogee_km": 476.1444916072196,
      "perigee_km": 474.33520011991095,
      "latitude_deg": 2.053704965245162e-05,
      "longitude_deg": 170.05567934179274,
      "height_km": 476.19182102061086,
      "semi_major_axis_km": 6853.376845863565,
      "eccentricity": 0.000132,
      "inclination_deg": 53.1616,
      "raan_deg": 72.6387,
      "arg_perigee_deg": 93.4095,
      "mean_anomaly_deg": 266.7057,
      "mean_motion_rev_day": 15.30191702
    }
  ]
}